[
  {
    "OBJECT_NAME": "STARLINK-34751",
    "OBJECT_ID": "25189R",
    "EPOCH": "2025-11-11T05:56:27.257280",
    "MEAN_MOTION": 15.30246608,
    "ECCENTRICITY": 0.0001088,
    "INCLINATION": 53.1598,
    "RA_OF_ASC_NODE": 36.8298,
    "ARG_OF_PERICENTER": 66.639,
    "MEAN_ANOMALY": 293.4726,
    "EPHEMERIS_TYPE": 0,
    "CLASSIFICATION_TYPE": "U",
    "NORAD_CAT_ID": 65338,
    "ELEMENT_SET_NO": 999,
    "REV_AT_EPOCH": 1297,
    "BSTAR": 0.0018333,
    "MEAN_MOTION_DOT": 0.00054416,
    "MEAN_MOTION_DDOT": 0.0,
    "TLE_LINE1": "1 65338U 25189R   25315.24753770  .00054416  00000+0  18333-2 0  9990",
    "TLE_LINE2": "2 65338  53.1598  36.8298 0001088  66.6390 293.4726 15.30246608 12978",
    "COMMENT": "Grouped by shell and plane from TLE"
  },
  {
    "OBJECT_NAME": "STARLINK-34777",
    "OBJECT_ID": "25189S",
    "EPOCH": "2025-11-11T08:00:03.000384",
    "MEAN_MOTION": 15.30191046,
    "ECCENTRICITY": 0.0001764,
    "INCLINATION": 53.159,
    "RA_OF_ASC_NODE": 36.5977,
    "ARG_OF_PERICENTER": 90.9222,
    "MEAN_ANOMALY": 300.7871,
    "EPHEMERIS_TYPE": 0,
    "CLASSIFICATION_TYPE": "U",
    "NORAD_CAT_ID": 65339,
    "ELEMENT_SET_NO": 999,
    "REV_AT_EPOCH": 586,
    "BSTAR": 0.00024809,
    "MEAN_MOTION_DOT": 6.993e-05,
    "MEAN_MOTION_DDOT": 0.0,
    "TLE_LINE1": "1 65339U 25189S   25315.33336806  .00006993  00000+0  24809-3 0  9991",
    "TLE_LINE2": "2 65339  53.1590  36.5977 0001764  90.9222 300.7871 15.30191046  5865",
    "COMMENT": "Grouped by shell and plane from TLE"
  },
  {
    "OBJECT_NAME": "STARLINK-35016",
    "OBJECT_ID": "25189U",
    "EPOCH": "2025-11-11T06:14:41.589312",
    "MEAN_MOTION": 15.30248103,
    "ECCENTRICITY": 0.0001032,
    "INCLINATION": 53.1587,
    "RA_OF_ASC_NODE": 36.9079,
    "ARG_OF_PERICENTER": 2.7672,
    "MEAN_ANOMALY": 357.3334,
    "EPHEMERIS_TYPE": 0,
    "CLASSIFICATION_TYPE": "U",
    "NORAD_CAT_ID": 65341,
    "ELEMENT_SET_NO": 999,
    "REV_AT_EPOCH": 1292,
    "BSTAR": 0.0018065000000000002,
    "MEAN_MOTION_DOT": 0.00053612,
    "MEAN_MOTION_DDOT": 0.0,
    "TLE_LINE1": "1 65341U 25189U   25315.26020358  .00053612  00000+0  18065-2 0  9994",
    "TLE_LINE2": "2 65341  53.1587  36.9079 0001032   2.7672 357.3334 15.30248103 12923",
    "COMMENT": "Grouped by shell and plane from TLE"
  },
  {
    "OBJECT_NAME": "STARLINK-35092",
    "OBJECT_ID": "25189V",
    "EPOCH": "2025-11-11T06:27:42.404256",
    "MEAN_MOTION": 15.39701577,
    "ECCENTRICITY": 0.000148,
    "INCLINATION": 53.1589,
    "RA_OF_ASC_NODE": 36.9746,
    "ARG_OF_PERICENTER": 120.1394,
    "MEAN_ANOMALY": 239.9757,
    "EPHEMERIS_TYPE": 0,
    "CLASSIFICATION_TYPE": "U",
    "NORAD_CAT_ID": 65342,
    "ELEMENT_SET_NO": 999,
    "REV_AT_EPOCH": 1288,
    "BSTAR": 0.0021233,
    "MEAN_MOTION_DOT": 0.00085722,
    "MEAN_MOTION_DDOT": 0.0,
    "TLE_LINE1": "1 65342U 25189V   25315.26924079  .00085722  00000+0  21233-2 0  9996",
    "TLE_LINE2": "2 65342  53.1589  36.9746 0001480 120.1394 239.9757 15.39701577 12887",
    "COMMENT": "Grouped by shell and plane from TLE"
  },
  {
    "OBJECT_NAME": "STARLINK-34838",
    "OBJECT_ID": "25189W",
    "EPOCH": "2025-11-11T05:17:06.414432",
    "MEAN_MOTION": 15.30232573,
    "ECCENTRICITY": 0.0002029,
    "INCLINATION": 53.1575,
    "RA_OF_ASC_NODE": 37.3648,
    "ARG_OF_PERICENTER": 116.4567,
    "MEAN_ANOMALY": 243.6642,
    "EPHEMERIS_TYPE": 0,
    "CLASSIFICATION_TYPE": "U",
    "NORAD_CAT_ID": 65343,
    "ELEMENT_SET_NO": 999,
    "REV_AT_EPOCH": 1297,
    "BSTAR": 0.0013224,
    "MEAN_MOTION_DOT": 0.00039052,
    "MEAN_MOTION_DDOT": 0.0,
    "TLE_LINE1": "1 65343U 25189W   25315.22021313  .00039052  00000+0  13224-2 0  9998",
    "TLE_LINE2": "2 65343  53.1575  37.3648 0002029 116.4567 243.6642 15.30232573 12970",
    "COMMENT": "Grouped by shell and plane from TLE"
  },
  {
    "OBJECT_NAME": "STARLINK-35088",
    "OBJECT_ID": "25189X",
    "EPOCH": "2025-11-11T08:00:03.000384",
    "MEAN_MOTION": 15.30195034,
    "ECCENTRICITY": 0.0001595,
    "INCLINATION": 53.1593,
    "RA_OF_ASC_NODE": 36.7694,
    "ARG_OF_PERICENTER": 83.914,
    "MEAN_ANOMALY": 220.5286,
    "EPHEMERIS_TYPE": 0,
    "CLASSIFICATION_TYPE": "U",
    "NORAD_CAT_ID": 65344,
    "ELEMENT_SET_NO": 999,
    "REV_AT_EPOCH": 576,
    "BSTAR": 0.00043893,
    "MEAN_MOTION_DOT": 0.00012661,
    "MEAN_MOTION_DDOT": 0.0,
    "TLE_LINE1": "1 65344U 25189X   25315.33336806  .00012661  00000+0  43893-3 0  9990",
    "TLE_LINE2": "2 65344  53.1593  36.7694 0001595  83.9140 220.5286 15.30195034  5764",
    "COMMENT": "Grouped by shell and plane from TLE"
  },
  {
    "OBJECT_NAME": "STARLINK-34831",
    "OBJECT_ID": "25189Y",
    "EPOCH": "2025-11-11T08:00:03.000384",
    "MEAN_MOTION": 15.30179992,
    "ECCENTRICITY": 0.0002008,
    "INCLINATION": 53.1597,
    "RA_OF_ASC_NODE": 36.4801,
    "ARG_OF_PERICENTER": 78.9529,
    "MEAN_ANOMALY": 10.8322,
    "EPHEMERIS_TYPE": 0,
    "CLASSIFICATION_TYPE": "U",
    "NORAD_CAT_ID": 65345,
    "ELEMENT_SET_NO": 999,
    "REV_AT_EPOCH": 586,
    "BSTAR": 0.0012854,
    "MEAN_MOTION_DOT": 0.00037881,
    "MEAN_MOTION_DDOT": 0.0,
    "TLE_LINE1": "1 65345U 25189Y   25315.33336806  .00037881  00000+0  12854-2 0  9994",
    "TLE_LINE2": "2 65345  53.1597  36.4801 0002008  78.9529  10.8322 15.30179992  5868",
    "COMMENT": "Grouped by shell and plane from TLE"
  },
  {
    "OBJECT_NAME": "STARLINK-34873",
    "OBJECT_ID": "25189Z",
    "EPOCH": "2025-11-11T06:14:49.458624",
    "MEAN_MOTION": 15.39706721,
    "ECCENTRICITY": 0.0001268,
    "INCLINATION": 53.1592,
    "RA_OF_ASC_NODE": 36.918,
    "ARG_OF_PERICENTER": 91.634,
    "MEAN_ANOMALY": 268.481,
    "EPHEMERIS_TYPE": 0,
    "CLASSIFICATION_TYPE": "U",
    "NORAD_CAT_ID": 65346,
    "ELEMENT_SET_NO": 999,
    "REV_AT_EPOCH": 1298,
    "BSTAR": 0.0024735,
    "MEAN_MOTION_DOT": 0.00100134,
    "MEAN_MOTION_DDOT": 0.0,
    "TLE_LINE1": "1 65346U 25189Z   25315.26029466  .00100134  00000+0  24735-2 0  9991",
    "TLE_LINE2": "2 65346  53.1592  36.9180 0001268  91.6340 268.4810 15.39706721 12988",
    "COMMENT": "Grouped by shell and plane from TLE"
  },
  {
    "OBJECT_NAME": "STARLINK-34881",
    "OBJECT_ID": "25189AA",
    "EPOCH": "2025-11-11T08:00:03.000384",
    "MEAN_MOTION": 15.30177978,
    "ECCENTRICITY": 0.0001344,
    "INCLINATION": 53.1591,
    "RA_OF_ASC_NODE": 36.5616,
    "ARG_OF_PERICENTER": 82.6602,
    "MEAN_ANOMALY": 326.5143,
    "EPHEMERIS_TYPE": 0,
    "CLASSIFICATION_TYPE": "U",
    "NORAD_CAT_ID": 65347,
    "ELEMENT_SET_NO": 999,
    "REV_AT_EPOCH": 586,
    "BSTAR": 0.00040511999999999997,
    "MEAN_MOTION_DOT": 0.0001165,
    "MEAN_MOTION_DDOT": 0.0,
    "TLE_LINE1": "1 65347U 25189AA  25315.33336806  .00011650  00000+0  40512-3 0  9995",
    "TLE_LINE2": "2 65347  53.1591  36.5616 0001344  82.6602 326.5143 15.30177978  5865",
    "COMMENT": "Grouped by shell and plane from TLE"
  },
  {
    "OBJECT_NAME": "STARLINK-34859",
    "OBJECT_ID": "25189AB",
    "EPOCH": "2025-11-11T06:26:51.294336",
    "MEAN_MOTION": 15.30226514,
    "ECCENTRICITY": 0.0001619,
    "INCLINATION": 53.1583,
    "RA_OF_ASC_NODE": 36.9663,
    "ARG_OF_PERICENTER": 61.8385,
    "MEAN_ANOMALY": 298.278,
    "EPHEMERIS_TYPE": 0,
    "CLASSIFICATION_TYPE": "U",
    "NORAD_CAT_ID": 65348,
    "ELEMENT_SET_NO": 999,
    "REV_AT_EPOCH": 1297,
    "BSTAR": 0.0022903000000000003,
    "MEAN_MOTION_DOT": 0.00068154,
    "MEAN_MOTION_DDOT": 0.0,
    "TLE_LINE1": "1 65348U 25189AB  25315.26864924  .00068154  00000+0  22903-2 0  9999",
    "TLE_LINE2": "2 65348  53.1583  36.9663 0001619  61.8385 298.2780 15.30226514 12978",
    "COMMENT": "Grouped by shell and plane from TLE"
  },
  {
    "OBJECT_NAME": "STARLINK-34895",
    "OBJECT_ID": "25189AC",
    "EPOCH": "2025-11-11T06:05:37.074048",
    "MEAN_MOTION": 15.30744066,
    "ECCENTRICITY": 0.0001292,
    "INCLINATION": 53.1597,
    "RA_OF_ASC_NODE": 36.8739,
    "ARG_OF_PERICENTER": 73.3006,
    "MEAN_ANOMALY": 286.8137,
    "EPHEMERIS_TYPE": 0,
    "CLASSIFICATION_TYPE": "U",
    "NORAD_CAT_ID": 65349,
    "ELEMENT_SET_NO": 999,
    "REV_AT_EPOCH": 1293,
    "BSTAR": 0.0,
    "MEAN_MOTION_DOT": -0.00294604,
    "MEAN_MOTION_DDOT": 0.0,
    "TLE_LINE1": "1 65349U 25189AC  25315.25390132 -.00294604  00000+0 -10159-1 0  9996",
    "TLE_LINE2": "2 65349  53.1597  36.8739 0001292  73.3006 286.8137 15.30744066 12934",
    "COMMENT": "Grouped by shell and plane from TLE"
  },
  {
    "OBJECT_NAME": "STARLINK-34892",
    "OBJECT_ID": "25189AD",
    "EPOCH": "2025-11-11T08:00:03.000384",
    "MEAN_MOTION": 15.32705272,
    "ECCENTRICITY": 0.0001467,
    "INCLINATION": 53.1603,
    "RA_OF_ASC_NODE": 36.3213,
    "ARG_OF_PERICENTER": 78.7171,
    "MEAN_ANOMALY": 90.9439,
    "EPHEMERIS_TYPE": 0,
    "CLASSIFICATION_TYPE": "U",
    "NORAD_CAT_ID": 65350,
    "ELEMENT_SET_NO": 999,
    "REV_AT_EPOCH": 591,
    "BSTAR": 0.0,
    "MEAN_MOTION_DOT": -0.02985018,
    "MEAN_MOTION_DDOT": 0.0,
    "TLE_LINE1": "1 65350U 25189AD  25315.33336806 -.02985018  00000+0 -10592+0 0  9992",
    "TLE_LINE2": "2 65350  53.1603  36.3213 0001467  78.7171  90.9439 15.32705272  5919",
    "COMMENT": "Grouped by shell and plane from TLE"
  }
]